[{"OBJECT_NAME":"GLOBAL-2","OBJECT_ID":"2018-099BG","EPOCH":"2026-03-09T16:47:21.463008","MEAN_MOTION":15.08046936,"ECCENTRICITY":0.00074537,"INCLINATION":97.3697,"RA_OF_ASC_NODE":109.328,"ARG_OF_PERICENTER":127.1924,"MEAN_ANOMALY":232.9986,"EPHEMERIS_TYPE":0,"CLASSIFICATION_TYPE":"U","NORAD_CAT_ID":43812,"ELEMENT_SET_NO":999,"REV_AT_EPOCH":39691,"BSTAR":0.0002614533,"MEAN_MOTION_DOT":3.97e-5,"MEAN_MOTION_DDOT":0},{"OBJECT_NAME":"STARLINK-4319","OBJECT_ID":"2022-077AT","EPOCH":"2026-03-09T11:38:52.097280","MEAN_MOTION":15.05632482,"ECCENTRICITY":0.00012509,"INCLINATION":97.6018,"RA_OF_ASC_NODE":251.0117,"ARG_OF_PERICENTER":92.1404,"MEAN_ANOMALY":267.9966,"EPHEMERIS_TYPE":0,"CLASSIFICATION_TYPE":"U","NORAD_CAT_ID":53084,"ELEMENT_SET_NO":999,"REV_AT_EPOCH":20095,"BSTAR":-0.00017321276,"MEAN_MOTION_DOT":-2.558e-5,"MEAN_MOTION_DDOT":0}]
