GLOBAL-2                
1 43812U 18099BG  26068.69955396  .00003970  00000+0  26145-3 0  9998
2 43812  97.3697 109.3280 0007454 127.1924 232.9986 15.08046936396919
STARLINK-4319           
1 53084U 22077AT  26068.48532520 -.00002558  00000+0 -17321-3 0  9997
2 53084  97.6018 251.0117 0001250  92.1404 267.9966 15.05632482200955
